{"type": "FeatureCollection", "features": [ {"type": "Feature", "properties": {"norad_id": 33799, "name": "COSMOS 2251 DEB", "group": "cosmos-2251-debris", "lat": -12.894096320402063, "lon": 60.385029967193624, "alt_km": 647.3628223119622, "timestamp": "2025-12-21T16:47:55.131479+00:00", "meta": {"OBJECT_NAME": "COSMOS 2251 DEB", "OBJECT_ID": "1993-036AQ", "EPOCH": "2025-12-21T03:59:57.973344", "MEAN_MOTION": 14.79717059, "ECCENTRICITY": 0.00226429, "INCLINATION": 74.0321, "RA_OF_ASC_NODE": 65.1931, "ARG_OF_PERICENTER": 132.8746, "MEAN_ANOMALY": 254.2713, "EPHEMERIS_TYPE": 0, "CLASSIFICATION_TYPE": "U", "NORAD_CAT_ID": 33799, "ELEMENT_SET_NO": 999, "REV_AT_EPOCH": 88936, "BSTAR": 0.00073330155, "MEAN_MOTION_DOT": 5.504e-05, "MEAN_MOTION_DDOT": 0}, "tle": {"line1": "1 33799U 93036AQ  25355.16664321  .00005504  00000+0  73330-3 0  9993", "line2": "2 33799  74.0321  65.1931 0022642 132.8746 254.2713 14.79717059889360"}}, "geometry": {"type": "Point", "coordinates": [60.385029967193624, -12.894096320402063]}}, {"type": "Feature", "properties": {"norad_id": 33805, "name": "COSMOS 2251 DEB", "group": "cosmos-2251-debris", "lat": 38.92037669746436, "lon": 100.9167071640531, "alt_km": 656.464699087518, "timestamp": "2025-12-21T16:47:55.131490+00:00", "meta": {"OBJECT_NAME": "COSMOS 2251 DEB", "OBJECT_ID": "1993-036AW", "EPOCH": "2025-12-21T06:17:05.994816", "MEAN_MOTION": 14.57873133, "ECCENTRICITY": 0.0059962, "INCLINATION": 74.0312, "RA_OF_ASC_NODE": 295.1186, "ARG_OF_PERICENTER": 121.6127, "MEAN_ANOMALY": 239.0908, "EPHEMERIS_TYPE": 0, "CLASSIFICATION_TYPE": "U", "NORAD_CAT_ID": 33805, "ELEMENT_SET_NO": 999, "REV_AT_EPOCH": 89351, "BSTAR": 0.00018233, "MEAN_MOTION_DOT": 8.26e-06, "MEAN_MOTION_DDOT": 0}, "tle": {"line1": "1 33805U 93036AW  25355.26187494  .00000826  00000+0  18233-3 0  9996", "line2": "2 33805  74.0312 295.1186 0059962 121.6127 239.0908 14.57873133893510"}}, "geometry": {"type": "Point", "coordinates": [100.9167071640531, 38.92037669746436]}}, {"type": "Feature", "properties": {"norad_id": 33811, "name": "COSMOS 2251 DEB", "group": "cosmos-2251-debris", "lat": 71.30859124358919, "lon": 45.065804236448926, "alt_km": 544.9994458937099, "timestamp": "2025-12-21T16:47:55.131500+00:00", "meta": {"OBJECT_NAME": "COSMOS 2251 DEB", "OBJECT_ID": "1993-036BC", "EPOCH": "2025-12-21T12:06:34.251840", "MEAN_MOTION": 15.0550217, "ECCENTRICITY": 0.0030951, "INCLINATION": 73.8382, "RA_OF_ASC_NODE": 284.4748, "ARG_OF_PERICENTER": 3.5941, "MEAN_ANOMALY": 117.0552, "EPHEMERIS_TYPE": 0, "CLASSIFICATION_TYPE": "U", "NORAD_CAT_ID": 33811, "ELEMENT_SET_NO": 999, "REV_AT_EPOCH": 90150, "BSTAR": 0.00083754, "MEAN_MOTION_DOT": 0.00012154, "MEAN_MOTION_DDOT": 0}, "tle": {"line1": "1 33811U 93036BC  25355.50456310  .00012154  00000+0  83754-3 0  9993", "line2": "2 33811  73.8382 284.4748 0030951   3.5941 117.0552 15.05502170901508"}}, "geometry": {"type": "Point", "coordinates": [45.065804236448926, 71.30859124358919]}}, {"type": "Feature", "properties": {"norad_id": 33815, "name": "COSMOS 2251 DEB", "group": "cosmos-2251-debris", "lat": -66.16395657348912, "lon": 18.387084668320615, "alt_km": 511.25581394537403, "timestamp": "2025-12-21T16:47:55.131543+00:00", "meta": {"OBJECT_NAME": "COSMOS 2251 DEB", "OBJECT_ID": "1993-036BG", "EPOCH": "2025-12-21T05:24:27.043200", "MEAN_MOTION": 15.20114947, "ECCENTRICITY": 0.0002165, "INCLINATION": 73.9521, "RA_OF_ASC_NODE": 158.7294, "ARG_OF_PERICENTER": 313.0523, "MEAN_ANOMALY": 222.7176, "EPHEMERIS_TYPE": 0, "CLASSIFICATION_TYPE": "U", "NORAD_CAT_ID": 33815, "ELEMENT_SET_NO": 999, "REV_AT_EPOCH": 88499, "BSTAR": 0.0058721, "MEAN_MOTION_DOT": 0.00129213, "MEAN_MOTION_DDOT": 0}, "tle": {"line1": "1 33815U 93036BG  25355.22531300  .00129213  00000+0  58721-2 0  9999", "line2": "2 33815  73.9521 158.7294 0002165 313.0523 222.7176 15.20114947884995"}}, "geometry": {"type": "Point", "coordinates": [18.387084668320615, -66.16395657348912]}}, {"type": "Feature", "properties": {"norad_id": 33816, "name": "COSMOS 2251 DEB", "group": "cosmos-2251-debris", "lat": 1.9309690743797525, "lon": 90.76786239892556, "alt_km": 985.9854564831039, "timestamp": "2025-12-21T16:47:55.131565+00:00", "meta": {"OBJECT_NAME": "COSMOS 2251 DEB", "OBJECT_ID": "1993-036BH", "EPOCH": "2025-12-21T08:06:04.230144", "MEAN_MOTION": 13.81792428, "ECCENTRICITY": 0.0264291, "INCLINATION": 73.8953, "RA_OF_ASC_NODE": 90.8238, "ARG_OF_PERICENTER": 102.0568, "MEAN_ANOMALY": 261.0303, "EPHEMERIS_TYPE": 0, "CLASSIFICATION_TYPE": "U", "NORAD_CAT_ID": 33816, "ELEMENT_SET_NO": 999, "REV_AT_EPOCH": 84792, "BSTAR": 0.00028496, "MEAN_MOTION_DOT": 3.76e-06, "MEAN_MOTION_DDOT": 0}, "tle": {"line1": "1 33816U 93036BH  25355.33754896  .00000376  00000+0  28496-3 0  9994", "line2": "2 33816  73.8953  90.8238 0264291 102.0568 261.0303 13.81792428847924"}}, "geometry": {"type": "Point", "coordinates": [90.76786239892556, 1.9309690743797525]}}, {"type": "Feature", "properties": {"norad_id": 33818, "name": "COSMOS 2251 DEB", "group": "cosmos-2251-debris", "lat": -60.63921139154937, "lon": 117.21893542168526, "alt_km": 549.8749256418487, "timestamp": "2025-12-21T16:47:55.131580+00:00", "meta": {"OBJECT_NAME": "COSMOS 2251 DEB", "OBJECT_ID": "1993-036BK", "EPOCH": "2025-12-21T12:36:07.056288", "MEAN_MOTION": 15.13147314, "ECCENTRICITY": 0.0025059, "INCLINATION": 74.078, "RA_OF_ASC_NODE": 148.074, "ARG_OF_PERICENTER": 132.9847, "MEAN_ANOMALY": 289.8529, "EPHEMERIS_TYPE": 0, "CLASSIFICATION_TYPE": "U", "NORAD_CAT_ID": 33818, "ELEMENT_SET_NO": 999, "REV_AT_EPOCH": 89995, "BSTAR": 0.002047, "MEAN_MOTION_DOT": 0.00036719, "MEAN_MOTION_DDOT": 0}, "tle": {"line1": "1 33818U 93036BK  25355.52508167  .00036719  00000+0  20470-2 0  9998", "line2": "2 33818  74.0780 148.0740 0025059 132.9847 289.8529 15.13147314899953"}}, "geometry": {"type": "Point", "coordinates": [117.21893542168526, -60.63921139154937]}}, {"type": "Feature", "properties": {"norad_id": 33819, "name": "COSMOS 2251 DEB", "group": "cosmos-2251-debris", "lat": -19.035431072194463, "lon": -171.97678976806202, "alt_km": 768.6010092858751, "timestamp": "2025-12-21T16:47:55.131591+00:00", "meta": {"OBJECT_NAME": "COSMOS 2251 DEB", "OBJECT_ID": "1993-036BL", "EPOCH": "2025-12-21T07:23:43.181088", "MEAN_MOTION": 14.32249896, "ECCENTRICITY": 0.0089407, "INCLINATION": 74.1774, "RA_OF_ASC_NODE": 194.3466, "ARG_OF_PERICENTER": 53.0788, "MEAN_ANOMALY": 68.8206, "EPHEMERIS_TYPE": 0, "CLASSIFICATION_TYPE": "U", "NORAD_CAT_ID": 33819, "ELEMENT_SET_NO": 999, "REV_AT_EPOCH": 87618, "BSTAR": 0.00045613, "MEAN_MOTION_DOT": 1.261e-05, "MEAN_MOTION_DDOT": 0}, "tle": {"line1": "1 33819U 93036BL  25355.30813867  .00001261  00000+0  45613-3 0  9992", "line2": "2 33819  74.1774 194.3466 0089407  53.0788  68.8206 14.32249896876186"}}, "geometry": {"type": "Point", "coordinates": [-171.97678976806202, -19.035431072194463]}}, {"type": "Feature", "properties": {"norad_id": 33821, "name": "COSMOS 2251 DEB", "group": "cosmos-2251-debris", "lat": 31.37291904802349, "lon": -66.16958744095597, "alt_km": 452.214437818704, "timestamp": "2025-12-21T16:47:55.131601+00:00", "meta": {"OBJECT_NAME": "COSMOS 2251 DEB", "OBJECT_ID": "1993-036BN", "EPOCH": "2025-12-20T19:41:58.311456", "MEAN_MOTION": 15.25778594, "ECCENTRICITY": 0.00500701, "INCLINATION": 74.03, "RA_OF_ASC_NODE": 125.7461, "ARG_OF_PERICENTER": 156.7789, "MEAN_ANOMALY": 203.569, "EPHEMERIS_TYPE": 0, "CLASSIFICATION_TYPE": "U", "NORAD_CAT_ID": 33821, "ELEMENT_SET_NO": 999, "REV_AT_EPOCH": 75124, "BSTAR": 0.00083355537, "MEAN_MOTION_DOT": 0.000221, "MEAN_MOTION_DDOT": 0}, "tle": {"line1": "1 33821U 93036BN  25354.82081379  .00022100  00000+0  83356-3 0  9997", "line2": "2 33821  74.0300 125.7461 0050070 156.7789 203.5690 15.25778594751241"}}, "geometry": {"type": "Point", "coordinates": [-66.16958744095597, 31.37291904802349]}}, {"type": "Feature", "properties": {"norad_id": 33822, "name": "COSMOS 2251 DEB", "group": "cosmos-2251-debris", "lat": -73.88715098904213, "lon": 96.43746378270265, "alt_km": 784.2715244879519, "timestamp": "2025-12-21T16:47:55.131612+00:00", "meta": {"OBJECT_NAME": "COSMOS 2251 DEB", "OBJECT_ID": "1993-036BP", "EPOCH": "2025-12-21T12:15:50.818176", "MEAN_MOTION": 14.13109812, "ECCENTRICITY": 0.015283, "INCLINATION": 74.0676, "RA_OF_ASC_NODE": 178.197, "ARG_OF_PERICENTER": 222.3811, "MEAN_ANOMALY": 167.867, "EPHEMERIS_TYPE": 0, "CLASSIFICATION_TYPE": "U", "NORAD_CAT_ID": 33822, "ELEMENT_SET_NO": 999, "REV_AT_EPOCH": 86178, "BSTAR": 0.0010397, "MEAN_MOTION_DOT": 2.146e-05, "MEAN_MOTION_DDOT": 0}, "tle": {"line1": "1 33822U 93036BP  25355.51100484  .00002146  00000+0  10397-2 0  9996", "line2": "2 33822  74.0676 178.1970 0152830 222.3811 167.8670 14.13109812861786"}}, "geometry": {"type": "Point", "coordinates": [96.43746378270265, -73.88715098904213]}}, {"type": "Feature", "properties": {"norad_id": 33823, "name": "COSMOS 2251 DEB", "group": "cosmos-2251-debris", "lat": 0.3072507909528871, "lon": 133.71624367810855, "alt_km": 931.3449162851148, "timestamp": "2025-12-21T16:47:55.131623+00:00", "meta": {"OBJECT_NAME": "COSMOS 2251 DEB", "OBJECT_ID": "1993-036BQ", "EPOCH": "2025-12-21T03:58:04.827360", "MEAN_MOTION": 13.98969204, "ECCENTRICITY": 0.02094175, "INCLINATION": 73.8097, "RA_OF_ASC_NODE": 134.5636, "ARG_OF_PERICENTER": 258.3721, "MEAN_ANOMALY": 288.2927, "EPHEMERIS_TYPE": 0, "CLASSIFICATION_TYPE": "U", "NORAD_CAT_ID": 33823, "ELEMENT_SET_NO": 999, "REV_AT_EPOCH": 85727, "BSTAR": 0.0005548311, "MEAN_MOTION_DOT": 9.4e-06, "MEAN_MOTION_DDOT": 0}, "tle": {"line1": "1 33823U 93036BQ  25355.16533365  .00000940  00000+0  55483-3 0  9992", "line2": "2 33823  73.8097 134.5636 0209417 258.3721 288.2927 13.98969204857272"}}, "geometry": {"type": "Point", "coordinates": [133.71624367810855, 0.3072507909528871]}}]}